{"type": "FeatureCollection", "features": [ {"type": "Feature", "properties": {"norad_id": 31244, "name": "FENGYUN 1C DEB", "group": "fengyun-1c-debris", "lat": -59.68349595896723, "lon": -151.46066103961624, "alt_km": 830.460738969854, "timestamp": "2025-12-06T16:45:43.003302+00:00", "meta": {"OBJECT_NAME": "FENGYUN 1C DEB", "OBJECT_ID": "1999-025BMA", "EPOCH": "2025-11-29T11:08:59.157312", "MEAN_MOTION": 14.06218558, "ECCENTRICITY": 0.01023846, "INCLINATION": 99.0353, "RA_OF_ASC_NODE": 37.1115, "ARG_OF_PERICENTER": 211.8178, "MEAN_ANOMALY": 147.6779, "EPHEMERIS_TYPE": 0, "CLASSIFICATION_TYPE": "U", "NORAD_CAT_ID": 31244, "ELEMENT_SET_NO": 999, "REV_AT_EPOCH": 57453, "BSTAR": 0.00052742349, "MEAN_MOTION_DOT": 8.65e-06, "MEAN_MOTION_DDOT": 0}, "tle": {"line1": "1 31244U 99025BMA 25333.46457358  .00000865  00000+0  52742-3 0  9998", "line2": "2 31244  99.0353  37.1115 0102384 211.8178 147.6779 14.06218558574534"}}, "geometry": {"type": "Point", "coordinates": [-151.46066103961624, -59.68349595896723]}}, {"type": "Feature", "properties": {"norad_id": 31247, "name": "FENGYUN 1C DEB", "group": "fengyun-1c-debris", "lat": -16.64068190292179, "lon": 45.855630606781936, "alt_km": 900.6697226004835, "timestamp": "2025-12-06T16:45:43.003312+00:00", "meta": {"OBJECT_NAME": "FENGYUN 1C DEB", "OBJECT_ID": "1999-025BMD", "EPOCH": "2025-12-06T04:35:31.021728", "MEAN_MOTION": 14.05089722, "ECCENTRICITY": 0.00587206, "INCLINATION": 99.3654, "RA_OF_ASC_NODE": 228.1597, "ARG_OF_PERICENTER": 80.3322, "MEAN_ANOMALY": 72.2333, "EPHEMERIS_TYPE": 0, "CLASSIFICATION_TYPE": "U", "NORAD_CAT_ID": 31247, "ELEMENT_SET_NO": 999, "REV_AT_EPOCH": 95429, "BSTAR": 0.0016118573, "MEAN_MOTION_DOT": 2.593e-05, "MEAN_MOTION_DDOT": 0}, "tle": {"line1": "1 31247U 99025BMD 25340.19133127  .00002593  00000+0  16119-2 0  9991", "line2": "2 31247  99.3654 228.1597 0058720  80.3322  72.2333 14.05089722954296"}}, "geometry": {"type": "Point", "coordinates": [45.855630606781936, -16.64068190292179]}}, {"type": "Feature", "properties": {"norad_id": 31248, "name": "FENGYUN 1C DEB", "group": "fengyun-1c-debris", "lat": -42.23456502498219, "lon": 46.67596369711098, "alt_km": 846.7743951618368, "timestamp": "2025-12-06T16:45:43.003323+00:00", "meta": {"OBJECT_NAME": "FENGYUN 1C DEB", "OBJECT_ID": "1999-025BME", "EPOCH": "2025-12-02T02:45:39.580416", "MEAN_MOTION": 13.92758198, "ECCENTRICITY": 0.0109757, "INCLINATION": 99.2654, "RA_OF_ASC_NODE": 33.5687, "ARG_OF_PERICENTER": 340.39, "MEAN_ANOMALY": 48.6423, "EPHEMERIS_TYPE": 0, "CLASSIFICATION_TYPE": "U", "NORAD_CAT_ID": 31248, "ELEMENT_SET_NO": 999, "REV_AT_EPOCH": 94676, "BSTAR": 0.00064820906, "MEAN_MOTION_DOT": 8.36e-06, "MEAN_MOTION_DDOT": 0}, "tle": {"line1": "1 31248U 99025BME 25336.11504144  .00000836  00000+0  64821-3 0  9992", "line2": "2 31248  99.2654  33.5687 0109757 340.3900  48.6423 13.92758198946767"}}, "geometry": {"type": "Point", "coordinates": [46.67596369711098, -42.23456502498219]}}, {"type": "Feature", "properties": {"norad_id": 31250, "name": "FENGYUN 1C DEB", "group": "fengyun-1c-debris", "lat": -73.88827578807748, "lon": -138.0858921928117, "alt_km": 806.6024165183044, "timestamp": "2025-12-06T16:45:43.003334+00:00", "meta": {"OBJECT_NAME": "FENGYUN 1C DEB", "OBJECT_ID": "1999-025BMG", "EPOCH": "2025-11-27T20:53:06.321984", "MEAN_MOTION": 14.02996088, "ECCENTRICITY": 0.01342537, "INCLINATION": 98.3888, "RA_OF_ASC_NODE": 183.0534, "ARG_OF_PERICENTER": 339.6638, "MEAN_ANOMALY": 19.9213, "EPHEMERIS_TYPE": 0, "CLASSIFICATION_TYPE": "U", "NORAD_CAT_ID": 31250, "ELEMENT_SET_NO": 999, "REV_AT_EPOCH": 95309, "BSTAR": 0.0013427936, "MEAN_MOTION_DOT": 2.218e-05, "MEAN_MOTION_DDOT": 0}, "tle": {"line1": "1 31250U 99025BMG 25331.87021206  .00002218  00000+0  13428-2 0  9998", "line2": "2 31250  98.3888 183.0534 0134253 339.6638  19.9213 14.02996088953095"}}, "geometry": {"type": "Point", "coordinates": [-138.0858921928117, -73.88827578807748]}}, {"type": "Feature", "properties": {"norad_id": 31252, "name": "FENGYUN 1C DEB", "group": "fengyun-1c-debris", "lat": -75.99025096106824, "lon": 143.81855693432803, "alt_km": 706.1588183789081, "timestamp": "2025-12-06T16:45:43.003345+00:00", "meta": {"OBJECT_NAME": "FENGYUN 1C DEB", "OBJECT_ID": "1999-025BMJ", "EPOCH": "2025-12-05T07:53:24.267840", "MEAN_MOTION": 14.40139317, "ECCENTRICITY": 0.02134055, "INCLINATION": 98.3166, "RA_OF_ASC_NODE": 358.3785, "ARG_OF_PERICENTER": 194.5162, "MEAN_ANOMALY": 164.9837, "EPHEMERIS_TYPE": 0, "CLASSIFICATION_TYPE": "U", "NORAD_CAT_ID": 31252, "ELEMENT_SET_NO": 999, "REV_AT_EPOCH": 97100, "BSTAR": 0.00077720812, "MEAN_MOTION_DOT": 3.163e-05, "MEAN_MOTION_DDOT": 0}, "tle": {"line1": "1 31252U 99025BMJ 25339.32875310  .00003163  00000+0  77721-3 0  9998", "line2": "2 31252  98.3166 358.3785 0213405 194.5162 164.9837 14.40139317971008"}}, "geometry": {"type": "Point", "coordinates": [143.81855693432803, -75.99025096106824]}}, {"type": "Feature", "properties": {"norad_id": 31253, "name": "FENGYUN 1C DEB", "group": "fengyun-1c-debris", "lat": 78.20058519475955, "lon": -4.2127699600811175, "alt_km": 681.9789923224889, "timestamp": "2025-12-06T16:45:43.003355+00:00", "meta": {"OBJECT_NAME": "FENGYUN 1C DEB", "OBJECT_ID": "1999-025BMK", "EPOCH": "2025-12-03T09:40:45.297984", "MEAN_MOTION": 14.03577789, "ECCENTRICITY": 0.02905849, "INCLINATION": 99.0777, "RA_OF_ASC_NODE": 42.429, "ARG_OF_PERICENTER": 116.7356, "MEAN_ANOMALY": 246.3862, "EPHEMERIS_TYPE": 0, "CLASSIFICATION_TYPE": "U", "NORAD_CAT_ID": 31253, "ELEMENT_SET_NO": 999, "REV_AT_EPOCH": 68867, "BSTAR": 0.00066608473, "MEAN_MOTION_DOT": 1.476e-05, "MEAN_MOTION_DDOT": 0}, "tle": {"line1": "1 31253U 99025BMK 25337.40330206  .00001476  00000+0  66608-3 0  9993", "line2": "2 31253  99.0777  42.4290 0290584 116.7356 246.3862 14.03577789688670"}}, "geometry": {"type": "Point", "coordinates": [-4.2127699600811175, 78.20058519475955]}}, {"type": "Feature", "properties": {"norad_id": 31254, "name": "FENGYUN 1C DEB", "group": "fengyun-1c-debris", "lat": 33.20625379083686, "lon": -143.91416768178723, "alt_km": 737.3330385883037, "timestamp": "2025-12-06T16:45:43.003366+00:00", "meta": {"OBJECT_NAME": "FENGYUN 1C DEB", "OBJECT_ID": "1999-025BML", "EPOCH": "2025-11-27T22:14:27.134880", "MEAN_MOTION": 14.36276197, "ECCENTRICITY": 0.0150752, "INCLINATION": 98.4636, "RA_OF_ASC_NODE": 21.8734, "ARG_OF_PERICENTER": 246.3529, "MEAN_ANOMALY": 292.2282, "EPHEMERIS_TYPE": 0, "CLASSIFICATION_TYPE": "U", "NORAD_CAT_ID": 31254, "ELEMENT_SET_NO": 999, "REV_AT_EPOCH": 97303, "BSTAR": 0.00058845, "MEAN_MOTION_DOT": 1.909e-05, "MEAN_MOTION_DDOT": 0}, "tle": {"line1": "1 31254U 99025BML 25331.92670295  .00001909  00000+0  58845-3 0  9995", "line2": "2 31254  98.4636  21.8734 0150752 246.3529 292.2282 14.36276197973034"}}, "geometry": {"type": "Point", "coordinates": [-143.91416768178723, 33.20625379083686]}}, {"type": "Feature", "properties": {"norad_id": 31255, "name": "FENGYUN 1C DEB", "group": "fengyun-1c-debris", "lat": -74.7663246265354, "lon": -165.39915319419703, "alt_km": 822.4477398633508, "timestamp": "2025-12-06T16:45:43.003376+00:00", "meta": {"OBJECT_NAME": "FENGYUN 1C DEB", "OBJECT_ID": "1999-025BMM", "EPOCH": "2025-12-05T22:22:47.066880", "MEAN_MOTION": 14.09714292, "ECCENTRICITY": 0.02709408, "INCLINATION": 99.3086, "RA_OF_ASC_NODE": 156.7753, "ARG_OF_PERICENTER": 2.4684, "MEAN_ANOMALY": 357.7752, "EPHEMERIS_TYPE": 0, "CLASSIFICATION_TYPE": "U", "NORAD_CAT_ID": 31255, "ELEMENT_SET_NO": 999, "REV_AT_EPOCH": 96705, "BSTAR": 0.0004287077, "MEAN_MOTION_DOT": 1.006e-05, "MEAN_MOTION_DDOT": 0}, "tle": {"line1": "1 31255U 99025BMM 25339.93248920  .00001006  00000+0  42871-3 0  9991", "line2": "2 31255  99.3086 156.7753 0270940   2.4684 357.7752 14.09714292967055"}}, "geometry": {"type": "Point", "coordinates": [-165.39915319419703, -74.7663246265354]}}, {"type": "Feature", "properties": {"norad_id": 31256, "name": "FENGYUN 1C DEB", "group": "fengyun-1c-debris", "lat": -62.54473583374215, "lon": -154.27004553018946, "alt_km": 1105.7773677240193, "timestamp": "2025-12-06T16:45:43.003386+00:00", "meta": {"OBJECT_NAME": "FENGYUN 1C DEB", "OBJECT_ID": "1999-025BMN", "EPOCH": "2025-12-03T08:38:37.232160", "MEAN_MOTION": 14.03080392, "ECCENTRICITY": 0.03081552, "INCLINATION": 98.6841, "RA_OF_ASC_NODE": 185.432, "ARG_OF_PERICENTER": 140.4727, "MEAN_ANOMALY": 221.936, "EPHEMERIS_TYPE": 0, "CLASSIFICATION_TYPE": "U", "NORAD_CAT_ID": 31256, "ELEMENT_SET_NO": 999, "REV_AT_EPOCH": 64850, "BSTAR": 0.0040356477, "MEAN_MOTION_DOT": 9.524e-05, "MEAN_MOTION_DDOT": 0}, "tle": {"line1": "1 31256U 99025BMN 25337.36015315  .00009524  00000+0  40356-2 0  9995", "line2": "2 31256  98.6841 185.4320 0308155 140.4727 221.9360 14.03080392648501"}}, "geometry": {"type": "Point", "coordinates": [-154.27004553018946, -62.54473583374215]}}, {"type": "Feature", "properties": {"norad_id": 31258, "name": "FENGYUN 1C DEB", "group": "fengyun-1c-debris", "lat": -42.70354630550738, "lon": -59.62741422643676, "alt_km": 540.40902901749, "timestamp": "2025-12-06T16:45:43.003396+00:00", "meta": {"OBJECT_NAME": "FENGYUN 1C DEB", "OBJECT_ID": "1999-025BMQ", "EPOCH": "2025-12-05T09:49:12.726048", "MEAN_MOTION": 15.09388354, "ECCENTRICITY": 0.00042034, "INCLINATION": 98.8558, "RA_OF_ASC_NODE": 127.1578, "ARG_OF_PERICENTER": 269.7904, "MEAN_ANOMALY": 150.6873, "EPHEMERIS_TYPE": 0, "CLASSIFICATION_TYPE": "U", "NORAD_CAT_ID": 31258, "ELEMENT_SET_NO": 999, "REV_AT_EPOCH": 97000, "BSTAR": 0.016676184, "MEAN_MOTION_DOT": 0.00276801, "MEAN_MOTION_DDOT": 0}, "tle": {"line1": "1 31258U 99025BMQ 25339.40917507  .00276801  00000+0  16676-1 0  9999", "line2": "2 31258  98.8558 127.1578 0004203 269.7904 150.6873 15.09388354970003"}}, "geometry": {"type": "Point", "coordinates": [-59.62741422643676, -42.70354630550738]}}]}